CCSDS_OMM_VERS = 2.0
CREATION_DATE  = 
ORIGINATOR     = 

OBJECT_NAME    = STARLINK-35474
OBJECT_ID      = 2025-259R
CENTER_NAME    = EARTH
REF_FRAME      = TEME
TIME_SYSTEM    = UTC
MEAN_ELEMENT_THEORY = SGP/SGP4

EPOCH          = 2025-11-20T18:00:02.000160
MEAN_MOTION    = 15.86617763
ECCENTRICITY   = .0001753
INCLINATION    = 42.9981
RA_OF_ASC_NODE = 177.8996
ARG_OF_PERICENTER = 275.4244
MEAN_ANOMALY   = 134.6217

EPHEMERIS_TYPE = 0
CLASSIFICATION_TYPE = U
NORAD_CAT_ID   = 66437
ELEMENT_SET_NO = 999
REV_AT_EPOCH   = 274
BSTAR          = -.71642E-2
MEAN_MOTION_DOT = -.1643153E-1
MEAN_MOTION_DDOT = 0

CCSDS_OMM_VERS = 2.0
CREATION_DATE  = 
ORIGINATOR     = 

OBJECT_NAME    = STARLINK-34681
OBJECT_ID      = 2025-259S
CENTER_NAME    = EARTH
REF_FRAME      = TEME
TIME_SYSTEM    = UTC
MEAN_ELEMENT_THEORY = SGP/SGP4

EPOCH          = 2025-11-20T18:00:02.000160
MEAN_MOTION    = 15.86628813
ECCENTRICITY   = .000173
INCLINATION    = 42.9982
RA_OF_ASC_NODE = 177.8946
ARG_OF_PERICENTER = 276.1042
MEAN_ANOMALY   = 136.0301

EPHEMERIS_TYPE = 0
CLASSIFICATION_TYPE = U
NORAD_CAT_ID   = 66438
ELEMENT_SET_NO = 999
REV_AT_EPOCH   = 263
BSTAR          = -.71663E-2
MEAN_MOTION_DOT = -.1644342E-1
MEAN_MOTION_DDOT = 0

CCSDS_OMM_VERS = 2.0
CREATION_DATE  = 
ORIGINATOR     = 

OBJECT_NAME    = STARLINK-35327
OBJECT_ID      = 2025-259T
CENTER_NAME    = EARTH
REF_FRAME      = TEME
TIME_SYSTEM    = UTC
MEAN_ELEMENT_THEORY = SGP/SGP4

EPOCH          = 2025-11-20T18:00:02.000160
MEAN_MOTION    = 15.86591345
ECCENTRICITY   = .0001759
INCLINATION    = 42.9990
RA_OF_ASC_NODE = 177.9124
ARG_OF_PERICENTER = 275.6026
MEAN_ANOMALY   = 129.8867

EPHEMERIS_TYPE = 0
CLASSIFICATION_TYPE = U
NORAD_CAT_ID   = 66439
ELEMENT_SET_NO = 999
REV_AT_EPOCH   = 274
BSTAR          = -.7026E-2
MEAN_MOTION_DOT = -.1613647E-1
MEAN_MOTION_DDOT = 0

CCSDS_OMM_VERS = 2.0
CREATION_DATE  = 
ORIGINATOR     = 

OBJECT_NAME    = STARLINK-35405
OBJECT_ID      = 2025-259U
CENTER_NAME    = EARTH
REF_FRAME      = TEME
TIME_SYSTEM    = UTC
MEAN_ELEMENT_THEORY = SGP/SGP4

EPOCH          = 2025-11-20T18:00:02.000160
MEAN_MOTION    = 15.86647174
ECCENTRICITY   = .000176
INCLINATION    = 42.9985
RA_OF_ASC_NODE = 177.8896
ARG_OF_PERICENTER = 275.4375
MEAN_ANOMALY   = 138.7707

EPHEMERIS_TYPE = 0
CLASSIFICATION_TYPE = U
NORAD_CAT_ID   = 66440
ELEMENT_SET_NO = 999
REV_AT_EPOCH   = 274
BSTAR          = -.71988E-2
MEAN_MOTION_DOT = -.1652175E-1
MEAN_MOTION_DDOT = 0

CCSDS_OMM_VERS = 2.0
CREATION_DATE  = 
ORIGINATOR     = 

OBJECT_NAME    = STARLINK-35426
OBJECT_ID      = 2025-259V
CENTER_NAME    = EARTH
REF_FRAME      = TEME
TIME_SYSTEM    = UTC
MEAN_ELEMENT_THEORY = SGP/SGP4

EPOCH          = 2025-11-20T18:00:02.000160
MEAN_MOTION    = 15.86658061
ECCENTRICITY   = .0001741
INCLINATION    = 42.9981
RA_OF_ASC_NODE = 177.8836
ARG_OF_PERICENTER = 275.6853
MEAN_ANOMALY   = 140.7778

EPHEMERIS_TYPE = 0
CLASSIFICATION_TYPE = U
NORAD_CAT_ID   = 66441
ELEMENT_SET_NO = 999
REV_AT_EPOCH   = 274
BSTAR          = -.72439E-2
MEAN_MOTION_DOT = -.1661927E-1
MEAN_MOTION_DDOT = 0

CCSDS_OMM_VERS = 2.0
CREATION_DATE  = 
ORIGINATOR     = 

OBJECT_NAME    = STARLINK-34724
OBJECT_ID      = 2025-259W
CENTER_NAME    = EARTH
REF_FRAME      = TEME
TIME_SYSTEM    = UTC
MEAN_ELEMENT_THEORY = SGP/SGP4

EPOCH          = 2025-11-20T18:00:02.000160
MEAN_MOTION    = 15.86668980
ECCENTRICITY   = .000176
INCLINATION    = 42.9984
RA_OF_ASC_NODE = 177.8784
ARG_OF_PERICENTER = 274.8046
MEAN_ANOMALY   = 143.8535

EPHEMERIS_TYPE = 0
CLASSIFICATION_TYPE = U
NORAD_CAT_ID   = 66442
ELEMENT_SET_NO = 999
REV_AT_EPOCH   = 274
BSTAR          = -.72844E-2
MEAN_MOTION_DOT = -.1670781E-1
MEAN_MOTION_DDOT = 0

CCSDS_OMM_VERS = 2.0
CREATION_DATE  = 
ORIGINATOR     = 

OBJECT_NAME    = STARLINK-35219
OBJECT_ID      = 2025-259X
CENTER_NAME    = EARTH
REF_FRAME      = TEME
TIME_SYSTEM    = UTC
MEAN_ELEMENT_THEORY = SGP/SGP4

EPOCH          = 2025-11-20T18:00:02.000160
MEAN_MOTION    = 15.86696862
ECCENTRICITY   = .0001754
INCLINATION    = 42.9985
RA_OF_ASC_NODE = 177.8736
ARG_OF_PERICENTER = 274.8676
MEAN_ANOMALY   = 145.6885

EPHEMERIS_TYPE = 0
CLASSIFICATION_TYPE = U
NORAD_CAT_ID   = 66443
ELEMENT_SET_NO = 999
REV_AT_EPOCH   = 263
BSTAR          = -.73142E-2
MEAN_MOTION_DOT = -.1678717E-1
MEAN_MOTION_DDOT = 0

CCSDS_OMM_VERS = 2.0
CREATION_DATE  = 
ORIGINATOR     = 

OBJECT_NAME    = STARLINK-35360
OBJECT_ID      = 2025-259Y
CENTER_NAME    = EARTH
REF_FRAME      = TEME
TIME_SYSTEM    = UTC
MEAN_ELEMENT_THEORY = SGP/SGP4

EPOCH          = 2025-11-20T18:00:02.000160
MEAN_MOTION    = 15.86708075
ECCENTRICITY   = .0001258
INCLINATION    = 42.9983
RA_OF_ASC_NODE = 177.8562
ARG_OF_PERICENTER = 277.1139
MEAN_ANOMALY   = 150.0267

EPHEMERIS_TYPE = 0
CLASSIFICATION_TYPE = U
NORAD_CAT_ID   = 66444
ELEMENT_SET_NO = 999
REV_AT_EPOCH   = 274
BSTAR          = -.72739E-2
MEAN_MOTION_DOT = -.1671047E-1
MEAN_MOTION_DDOT = 0

CCSDS_OMM_VERS = 2.0
CREATION_DATE  = 
ORIGINATOR     = 

OBJECT_NAME    = STARLINK-34698
OBJECT_ID      = 2025-259Z
CENTER_NAME    = EARTH
REF_FRAME      = TEME
TIME_SYSTEM    = UTC
MEAN_ELEMENT_THEORY = SGP/SGP4

EPOCH          = 2025-11-20T18:00:02.000160
MEAN_MOTION    = 15.86694060
ECCENTRICITY   = .0001692
INCLINATION    = 42.9980
RA_OF_ASC_NODE = 177.8669
ARG_OF_PERICENTER = 274.2287
MEAN_ANOMALY   = 148.7775

EPHEMERIS_TYPE = 0
CLASSIFICATION_TYPE = U
NORAD_CAT_ID   = 66445
ELEMENT_SET_NO = 999
REV_AT_EPOCH   = 263
BSTAR          = -.73331E-2
MEAN_MOTION_DOT = -.1682218E-1
MEAN_MOTION_DDOT = 0

CCSDS_OMM_VERS = 2.0
CREATION_DATE  = 
ORIGINATOR     = 

OBJECT_NAME    = STARLINK-34986
OBJECT_ID      = 2025-259AA
CENTER_NAME    = EARTH
REF_FRAME      = TEME
TIME_SYSTEM    = UTC
MEAN_ELEMENT_THEORY = SGP/SGP4

EPOCH          = 2025-11-20T18:00:02.000160
MEAN_MOTION    = 15.86706132
ECCENTRICITY   = .0001647
INCLINATION    = 42.9980
RA_OF_ASC_NODE = 177.8611
ARG_OF_PERICENTER = 274.9156
MEAN_ANOMALY   = 150.3054

EPHEMERIS_TYPE = 0
CLASSIFICATION_TYPE = U
NORAD_CAT_ID   = 66446
ELEMENT_SET_NO = 999
REV_AT_EPOCH   = 274
BSTAR          = -.73703E-2
MEAN_MOTION_DOT = -.1690438E-1
MEAN_MOTION_DDOT = 0

CCSDS_OMM_VERS = 2.0
CREATION_DATE  = 
ORIGINATOR     = 

OBJECT_NAME    = STARLINK-34851
OBJECT_ID      = 2025-259AB
CENTER_NAME    = EARTH
REF_FRAME      = TEME
TIME_SYSTEM    = UTC
MEAN_ELEMENT_THEORY = SGP/SGP4

EPOCH          = 2025-11-20T18:00:02.000160
MEAN_MOTION    = 15.86740712
ECCENTRICITY   = .0001655
INCLINATION    = 42.9980
RA_OF_ASC_NODE = 177.8502
ARG_OF_PERICENTER = 274.4346
MEAN_ANOMALY   = 155.0010

EPHEMERIS_TYPE = 0
CLASSIFICATION_TYPE = U
NORAD_CAT_ID   = 66447
ELEMENT_SET_NO = 999
REV_AT_EPOCH   = 263
BSTAR          = -.74458E-2
MEAN_MOTION_DOT = -.1707941E-1
MEAN_MOTION_DDOT = 0

CCSDS_OMM_VERS = 2.0
CREATION_DATE  = 
ORIGINATOR     = 

OBJECT_NAME    = STARLINK-35355
OBJECT_ID      = 2025-259AC
CENTER_NAME    = EARTH
REF_FRAME      = TEME
TIME_SYSTEM    = UTC
MEAN_ELEMENT_THEORY = SGP/SGP4

EPOCH          = 2025-11-20T18:00:02.000160
MEAN_MOTION    = 15.86756790
ECCENTRICITY   = .0001654
INCLINATION    = 42.9984
RA_OF_ASC_NODE = 177.8455
ARG_OF_PERICENTER = 272.2172
MEAN_ANOMALY   = 159.2881

EPHEMERIS_TYPE = 0
CLASSIFICATION_TYPE = U
NORAD_CAT_ID   = 66448
ELEMENT_SET_NO = 999
REV_AT_EPOCH   = 274
BSTAR          = -.74436E-2
MEAN_MOTION_DOT = -.1708693E-1
MEAN_MOTION_DDOT = 0

