STARLINK-35474          
1 66437U 25259R   25324.75002315 -.01643153  00000+0 -71642-2 0  9994
2 66437  42.9981 177.8996 0001753 275.4244 134.6217 15.86617763  2749
STARLINK-34681          
1 66438U 25259S   25324.75002315 -.01644342  00000+0 -71663-2 0  9999
2 66438  42.9982 177.8946 0001730 276.1042 136.0301 15.86628813  2631
STARLINK-35327          
1 66439U 25259T   25324.75002315 -.01613647  00000+0 -70260-2 0  9996
2 66439  42.9990 177.9124 0001759 275.6026 129.8867 15.86591345  2745
STARLINK-35405          
1 66440U 25259U   25324.75002315 -.01652175  00000+0 -71988-2 0  9995
2 66440  42.9985 177.8896 0001760 275.4375 138.7707 15.86647174  2747
STARLINK-35426          
1 66441U 25259V   25324.75002315 -.01661927  00000+0 -72439-2 0  9993
2 66441  42.9981 177.8836 0001741 275.6853 140.7778 15.86658061  2748
STARLINK-34724          
1 66442U 25259W   25324.75002315 -.01670781  00000+0 -72844-2 0  9992
2 66442  42.9984 177.8784 0001760 274.8046 143.8535 15.86668980  2746
STARLINK-35219          
1 66443U 25259X   25324.75002315 -.01678717  00000+0 -73142-2 0  9992
2 66443  42.9985 177.8736 0001754 274.8676 145.6885 15.86696862  2633
STARLINK-35360          
1 66444U 25259Y   25324.75002315 -.01671047  00000+0 -72739-2 0  9993
2 66444  42.9983 177.8562 0001258 277.1139 150.0267 15.86708075  2744
STARLINK-34698          
1 66445U 25259Z   25324.75002315 -.01682218  00000+0 -73331-2 0  9995
2 66445  42.9980 177.8669 0001692 274.2287 148.7775 15.86694060  2638
STARLINK-34986          
1 66446U 25259AA  25324.75002315 -.01690438  00000+0 -73703-2 0  9992
2 66446  42.9980 177.8611 0001647 274.9156 150.3054 15.86706132  2743
STARLINK-34851          
1 66447U 25259AB  25324.75002315 -.01707941  00000+0 -74458-2 0  9999
2 66447  42.9980 177.8502 0001655 274.4346 155.0010 15.86740712  2632
STARLINK-35355          
1 66448U 25259AC  25324.75002315 -.01708693  00000+0 -74436-2 0  9991
2 66448  42.9984 177.8455 0001654 272.2172 159.2881 15.86756790  2743
